{"type": "FeatureCollection", "features": [ {"type": "Feature", "properties": {"norad_id": 40664, "name": "SKY MEXICO-1", "group": "intelsat", "lat": 0.020366866396941987, "lon": 140.20220111813188, "alt_km": 35794.38907058584, "timestamp": "2025-12-06T09:34:16.585663+00:00", "meta": {"OBJECT_NAME": "SKY MEXICO-1", "OBJECT_ID": "2015-026B", "EPOCH": "2025-12-05T21:52:54.727392", "MEAN_MOTION": 1.00269863, "ECCENTRICITY": 0.00028538, "INCLINATION": 0.0148, "RA_OF_ASC_NODE": 8.9741, "ARG_OF_PERICENTER": 261.1309, "MEAN_ANOMALY": 54.3171, "EPHEMERIS_TYPE": 0, "CLASSIFICATION_TYPE": "U", "NORAD_CAT_ID": 40664, "ELEMENT_SET_NO": 999, "REV_AT_EPOCH": 3851, "BSTAR": 0, "MEAN_MOTION_DOT": -2.25e-06, "MEAN_MOTION_DDOT": 0}, "tle": {"line1": "1 40664U 15026B   25339.91174453 -.00000225  00000+0  00000+0 0  9998", "line2": "2 40664   0.0148   8.9741 0002853 261.1309  54.3171  1.00269863 38517"}}, "geometry": {"type": "Point", "coordinates": [140.20220111813188, 0.020366866396941987]}}, {"type": "Feature", "properties": {"norad_id": 40874, "name": "INTELSAT 34 (IS-34)", "group": "intelsat", "lat": -0.00954999993662748, "lon": 163.49346378092244, "alt_km": 35784.08189328389, "timestamp": "2025-12-06T09:34:16.585675+00:00", "meta": {"OBJECT_NAME": "INTELSAT 34 (IS-34)", "OBJECT_ID": "2015-039A", "EPOCH": "2025-12-05T20:16:49.698624", "MEAN_MOTION": 1.00271506, "ECCENTRICITY": 5.383e-05, "INCLINATION": 0.0129, "RA_OF_ASC_NODE": 325.8778, "ARG_OF_PERICENTER": 215.7789, "MEAN_ANOMALY": 141.944, "EPHEMERIS_TYPE": 0, "CLASSIFICATION_TYPE": "U", "NORAD_CAT_ID": 40874, "ELEMENT_SET_NO": 999, "REV_AT_EPOCH": 3768, "BSTAR": 0, "MEAN_MOTION_DOT": -2.76e-06, "MEAN_MOTION_DDOT": 0}, "tle": {"line1": "1 40874U 15039A   25339.84501966 -.00000276  00000+0  00000+0 0  9996", "line2": "2 40874   0.0129 325.8778 0000538 215.7789 141.9440  1.00271506 37681"}}, "geometry": {"type": "Point", "coordinates": [163.49346378092244, -0.00954999993662748]}}, {"type": "Feature", "properties": {"norad_id": 41581, "name": "INTELSAT 31 (IS-31)", "group": "intelsat", "lat": -0.0016703036291181095, "lon": 123.91412641051069, "alt_km": 35787.33318611751, "timestamp": "2025-12-06T09:34:16.585686+00:00", "meta": {"OBJECT_NAME": "INTELSAT 31 (IS-31)", "OBJECT_ID": "2016-035A", "EPOCH": "2025-12-05T21:48:17.669376", "MEAN_MOTION": 1.00270095, "ECCENTRICITY": 0.00020973, "INCLINATION": 0.0181, "RA_OF_ASC_NODE": 271.3649, "ARG_OF_PERICENTER": 307.1586, "MEAN_ANOMALY": 88.4513, "EPHEMERIS_TYPE": 0, "CLASSIFICATION_TYPE": "U", "NORAD_CAT_ID": 41581, "ELEMENT_SET_NO": 999, "REV_AT_EPOCH": 3474, "BSTAR": 0, "MEAN_MOTION_DOT": -1.41e-06, "MEAN_MOTION_DDOT": 0}, "tle": {"line1": "1 41581U 16035A   25339.90853784 -.00000141  00000+0  00000+0 0  9995", "line2": "2 41581   0.0181 271.3649 0002097 307.1586  88.4513  1.00270095 34742"}}, "geometry": {"type": "Point", "coordinates": [123.91412641051069, -0.0016703036291181095]}}, {"type": "Feature", "properties": {"norad_id": 41747, "name": "INTELSAT 36 (IS-36)", "group": "intelsat", "lat": -0.030583671767008234, "lon": -72.49406339168728, "alt_km": 35775.191215896884, "timestamp": "2025-12-06T09:34:16.585698+00:00", "meta": {"OBJECT_NAME": "INTELSAT 36 (IS-36)", "OBJECT_ID": "2016-053A", "EPOCH": "2025-12-05T21:26:38.561568", "MEAN_MOTION": 1.00280112, "ECCENTRICITY": 0.00021281, "INCLINATION": 0.0114, "RA_OF_ASC_NODE": 359.9271, "ARG_OF_PERICENTER": 305.4208, "MEAN_ANOMALY": 159.7561, "EPHEMERIS_TYPE": 0, "CLASSIFICATION_TYPE": "U", "NORAD_CAT_ID": 41747, "ELEMENT_SET_NO": 999, "REV_AT_EPOCH": 3401, "BSTAR": 0, "MEAN_MOTION_DOT": -1.7e-07, "MEAN_MOTION_DDOT": 0}, "tle": {"line1": "1 41747U 16053A   25339.89350187 -.00000017  00000+0  00000+0 0  9998", "line2": "2 41747   0.0114 359.9271 0002128 305.4208 159.7561  1.00280112 34019"}}, "geometry": {"type": "Point", "coordinates": [-72.49406339168728, -0.030583671767008234]}}, {"type": "Feature", "properties": {"norad_id": 41945, "name": "INTELSAT 32E (IS-32E)", "group": "intelsat", "lat": 0.015089309425571962, "lon": 175.81435878291848, "alt_km": 35787.80542714371, "timestamp": "2025-12-06T09:34:16.585709+00:00", "meta": {"OBJECT_NAME": "INTELSAT 32E (IS-32E)", "OBJECT_ID": "2017-007B", "EPOCH": "2025-12-05T22:03:08.746272", "MEAN_MOTION": 1.00270461, "ECCENTRICITY": 3.273e-05, "INCLINATION": 0.0317, "RA_OF_ASC_NODE": 69.9778, "ARG_OF_PERICENTER": 267.6371, "MEAN_ANOMALY": 24.9596, "EPHEMERIS_TYPE": 0, "CLASSIFICATION_TYPE": "U", "NORAD_CAT_ID": 41945, "ELEMENT_SET_NO": 999, "REV_AT_EPOCH": 3228, "BSTAR": 0, "MEAN_MOTION_DOT": -2.6e-06, "MEAN_MOTION_DDOT": 0}, "tle": {"line1": "1 41945U 17007B   25339.91885123 -.00000260  00000+0  00000+0 0  9994", "line2": "2 41945   0.0317  69.9778 0000327 267.6371  24.9596  1.00270461 32287"}}, "geometry": {"type": "Point", "coordinates": [175.81435878291848, 0.015089309425571962]}}, {"type": "Feature", "properties": {"norad_id": 42818, "name": "INTELSAT 35E (IS-35E)", "group": "intelsat", "lat": -0.014036192917783208, "lon": -175.51553303389005, "alt_km": 35783.92262433493, "timestamp": "2025-12-06T09:34:16.585720+00:00", "meta": {"OBJECT_NAME": "INTELSAT 35E (IS-35E)", "OBJECT_ID": "2017-041A", "EPOCH": "2025-12-05T22:05:31.019424", "MEAN_MOTION": 1.00270215, "ECCENTRICITY": 0.00024242, "INCLINATION": 0.0172, "RA_OF_ASC_NODE": 352.0162, "ARG_OF_PERICENTER": 267.5985, "MEAN_ANOMALY": 112.2507, "EPHEMERIS_TYPE": 0, "CLASSIFICATION_TYPE": "U", "NORAD_CAT_ID": 42818, "ELEMENT_SET_NO": 999, "REV_AT_EPOCH": 3087, "BSTAR": 0, "MEAN_MOTION_DOT": -2.29e-06, "MEAN_MOTION_DDOT": 0}, "tle": {"line1": "1 42818U 17041A   25339.92049791 -.00000229  00000+0  00000+0 0  9991", "line2": "2 42818   0.0172 352.0162 0002424 267.5985 112.2507  1.00270215 30872"}}, "geometry": {"type": "Point", "coordinates": [-175.51553303389005, -0.014036192917783208]}}, {"type": "Feature", "properties": {"norad_id": 42950, "name": "INTELSAT 37E (IS-37E)", "group": "intelsat", "lat": -0.007801910747120816, "lon": -159.03132997536304, "alt_km": 35776.94927953287, "timestamp": "2025-12-06T09:34:16.585732+00:00", "meta": {"OBJECT_NAME": "INTELSAT 37E (IS-37E)", "OBJECT_ID": "2017-059A", "EPOCH": "2025-12-05T22:10:15.564000", "MEAN_MOTION": 1.00270695, "ECCENTRICITY": 0.00034995, "INCLINATION": 0.004, "RA_OF_ASC_NODE": 29.8645, "ARG_OF_PERICENTER": 221.4502, "MEAN_ANOMALY": 138.2268, "EPHEMERIS_TYPE": 0, "CLASSIFICATION_TYPE": "U", "NORAD_CAT_ID": 42950, "ELEMENT_SET_NO": 999, "REV_AT_EPOCH": 3012, "BSTAR": 0, "MEAN_MOTION_DOT": -1.31e-06, "MEAN_MOTION_DDOT": 0}, "tle": {"line1": "1 42950U 17059A   25339.92379125 -.00000131  00000+0  00000+0 0  9996", "line2": "2 42950   0.0040  29.8645 0003499 221.4502 138.2268  1.00270695 30127"}}, "geometry": {"type": "Point", "coordinates": [-159.03132997536304, -0.007801910747120816]}}, {"type": "Feature", "properties": {"norad_id": 43632, "name": "AZERSPACE 2 (IS-38)", "group": "intelsat", "lat": -0.02673468979724533, "lon": -95.88820334680716, "alt_km": 35779.601498729455, "timestamp": "2025-12-06T09:34:16.585743+00:00", "meta": {"OBJECT_NAME": "AZERSPACE 2 (IS-38)", "OBJECT_ID": "2018-074A", "EPOCH": "2025-12-05T20:13:38.707968", "MEAN_MOTION": 1.00270126, "ECCENTRICITY": 0.00016335, "INCLINATION": 0.009, "RA_OF_ASC_NODE": 310.2311, "ARG_OF_PERICENTER": 307.7534, "MEAN_ANOMALY": 165.4349, "EPHEMERIS_TYPE": 0, "CLASSIFICATION_TYPE": "U", "NORAD_CAT_ID": 43632, "ELEMENT_SET_NO": 999, "REV_AT_EPOCH": 2650, "BSTAR": 0, "MEAN_MOTION_DOT": 1.46e-06, "MEAN_MOTION_DDOT": 0}, "tle": {"line1": "1 43632U 18074A   25339.84280912  .00000146  00000+0  00000+0 0  9993", "line2": "2 43632   0.0090 310.2311 0001633 307.7534 165.4349  1.00270126 26506"}}, "geometry": {"type": "Point", "coordinates": [-95.88820334680716, -0.02673468979724533]}}, {"type": "Feature", "properties": {"norad_id": 43633, "name": "HORIZONS-3E", "group": "intelsat", "lat": 0.018888367917891034, "lon": 28.027519667623427, "alt_km": 35788.66923872137, "timestamp": "2025-12-06T09:34:16.585755+00:00", "meta": {"OBJECT_NAME": "HORIZONS-3E", "OBJECT_ID": "2018-074B", "EPOCH": "2025-12-05T21:20:57.787872", "MEAN_MOTION": 1.00268545, "ECCENTRICITY": 0.00011405, "INCLINATION": 0.0401, "RA_OF_ASC_NODE": 192.2057, "ARG_OF_PERICENTER": 85.4441, "MEAN_ANOMALY": 286.5534, "EPHEMERIS_TYPE": 0, "CLASSIFICATION_TYPE": "U", "NORAD_CAT_ID": 43633, "ELEMENT_SET_NO": 999, "REV_AT_EPOCH": 2640, "BSTAR": 0, "MEAN_MOTION_DOT": -2.1e-07, "MEAN_MOTION_DDOT": 0}, "tle": {"line1": "1 43633U 18074B   25339.88955773 -.00000021  00000+0  00000+0 0  9995", "line2": "2 43633   0.0401 192.2057 0001140  85.4441 286.5534  1.00268545 26400"}}, "geometry": {"type": "Point", "coordinates": [28.027519667623427, 0.018888367917891034]}}, {"type": "Feature", "properties": {"norad_id": 44333, "name": "AT&T T-16", "group": "intelsat", "lat": 0.028776004795598244, "lon": 118.12950863360773, "alt_km": 35784.46120836223, "timestamp": "2025-12-06T09:34:16.585766+00:00", "meta": {"OBJECT_NAME": "AT&T T-16", "OBJECT_ID": "2019-034A", "EPOCH": "2025-12-05T21:46:40.325088", "MEAN_MOTION": 1.00271318, "ECCENTRICITY": 6.937e-05, "INCLINATION": 0.0289, "RA_OF_ASC_NODE": 66.1436, "ARG_OF_PERICENTER": 104.688, "MEAN_ANOMALY": 129.9319, "EPHEMERIS_TYPE": 0, "CLASSIFICATION_TYPE": "U", "NORAD_CAT_ID": 44333, "ELEMENT_SET_NO": 999, "REV_AT_EPOCH": 2369, "BSTAR": 0, "MEAN_MOTION_DOT": -1.06e-06, "MEAN_MOTION_DDOT": 0}, "tle": {"line1": "1 44333U 19034A   25339.90741117 -.00000106  00000+0  00000+0 0  9992", "line2": "2 44333   0.0289  66.1436 0000693 104.6880 129.9319  1.00271318 23696"}}, "geometry": {"type": "Point", "coordinates": [118.12950863360773, 0.028776004795598244]}}]}